NORAD_CAT_ID,OBJECT_NAME,OBJECT_TYPE,EPOCH,MEAN_MOTION,ECCENTRICITY,INCLINATION,RA_OF_ASC_NODE,ARG_OF_PERICENTER,MEAN_ANOMALY,BSTAR,MEAN_MOTION_DOT,MEAN_MOTION_DDOT,TLE_LINE0,TLE_LINE1,TLE_LINE2,SEMIMAJOR_AXIS,PERIOD,APOGEE,PERIGEE,DECAYED
56479.0,STARLINK-6044,PAYLOAD,2024-08-01 21:01:15,14.98261008,0.0002719,70.0005,158.8256,263.8571,96.2279,0.0013132,0.00015583,0.0,0 STARLINK-6044,1 56479U 23064AH  24214.87587486  .00015583  00000-0  13132-2 0  9996,2 56479  70.0005 158.8256 0002719 263.8571  96.2279 14.98261008 68504,6950.406,96.111,574.161,570.381,0.0
56479.0,STARLINK-6044,PAYLOAD,2024-08-01 22:37:22,14.98333043,0.0002737,70.0004,158.6572,272.0324,88.0522,6.6924e-05,7.06e-06,0.0,0 STARLINK-6044,1 56479U 23064AH  24214.94262146  .00000706  00000-0  66924-4 0  9997,2 56479  70.0004 158.6572 0002737 272.0324  88.0522 14.98333043 68150,6950.183,96.107,573.951,570.146,0.0
56479.0,STARLINK-6044,PAYLOAD,2024-08-02 05:01:54,14.98337607,0.0002801,70.0002,157.9843,271.901,88.1829,0.0001121,1.245e-05,0.0,0 STARLINK-6044,1 56479U 23064AH  24215.20965686  .00001245  00000-0  11210-3 0  9992,2 56479  70.0002 157.9843 0002801 271.9010  88.1829 14.98337607 68558,6950.169,96.107,573.981,570.088,0.0
56479.0,STARLINK-6044,PAYLOAD,2024-08-02 13:02:35,14.98332679,0.0002664,70.0006,157.1433,269.718,90.3674,-2.8487e-05,-4.33e-06,0.0,0 STARLINK-6044,1 56479U 23064AH  24215.54346255 -.00000433  00000-0 -28487-4 0  9999,2 56479  70.0006 157.1433 0002664 269.7180  90.3674 14.98332679 68602,6950.185,96.107,573.901,570.198,0.0
56479.0,STARLINK-6044,PAYLOAD,2024-08-02 22:39:23,14.9832323,0.0002667,70.0007,156.1345,270.3879,89.6975,6.419e-05,6.73e-06,0.0,0 STARLINK-6044,1 56479U 23064AH  24215.94402682  .00000673  00000-0  64190-4 0  9995,2 56479  70.0007 156.1345 0002667 270.3879  89.6975 14.98323230 68305,6950.214,96.107,573.932,570.225,0.0
56479.0,STARLINK-6044,PAYLOAD,2024-08-03 13:04:36,14.98338223,0.0002475,70.001,154.6182,267.5166,92.5709,-0.00021075,-2.607e-05,0.0,0 STARLINK-6044,1 56479U 23064AH  24216.54486438 -.00002607  00000-0 -21075-3 0  9998,2 56479  70.0010 154.6182 0002475 267.5166  92.5709 14.98338223 68750,6950.167,96.106,573.753,570.312,0.0
56479.0,STARLINK-6044,PAYLOAD,2024-08-03 22:41:24,14.98333168,0.0002625,70.0001,153.6074,270.7129,89.3729,-2.4141e-05,-3.81e-06,0.0,0 STARLINK-6044,1 56479U 23064AH  24216.94542288 -.00000381  00000-0 -24141-4 0  9993,2 56479  70.0001 153.6074 0002625 270.7129  89.3729 14.98333168 68457,6950.183,96.107,573.873,570.224,0.0
56479.0,STARLINK-6044,PAYLOAD,2024-08-04 13:06:36,14.98337285,0.0002904,69.9997,152.0935,271.2611,88.8215,-5.7059e-06,-1.61e-06,0.0,0 STARLINK-6044,1 56479U 23064AH  24217.54625744 -.00000161  00000-0 -57059-5 0  9990,2 56479  69.9997 152.0935 0002904 271.2611  88.8215 14.98337285 68907,6950.17,96.107,574.054,570.017,0.0
56479.0,STARLINK-6044,PAYLOAD,2024-08-04 22:43:25,14.9833059,0.0002441,70.0005,151.0817,272.7388,87.3491,0.00011147,1.237e-05,0.0,0 STARLINK-6044,1 56479U 23064AH  24217.94681990  .00001237  00000-0  11147-3 0  9998,2 56479  70.0005 151.0817 0002441 272.7388  87.3491 14.98330590 68600,6950.191,96.107,573.753,570.36,0.0
56479.0,STARLINK-6044,PAYLOAD,2024-08-05 13:08:38,14.98324541,0.0002834,70.0018,149.568,275.5523,84.5313,-3.5045e-06,-1.35e-06,0.0,0 STARLINK-6044,1 56479U 23064AH  24218.54766571 -.00000135  00000-0 -35045-5 0  9997,2 56479  70.0018 149.5680 0002834 275.5523  84.5313 14.98324541 69053,6950.21,96.107,574.044,570.105,0.0
56479.0,STARLINK-6044,PAYLOAD,2024-08-05 21:09:19,14.98315839,0.0002527,70.0,148.7261,270.5658,89.5211,-0.0001068,-1.366e-05,0.0,0 STARLINK-6044,1 56479U 23064AH  24218.88147712 -.00001366  00000-0 -10680-3 0  9997,2 56479  70.0000 148.7261 0002527 270.5658  89.5211 14.98315839 69101,6950.237,96.108,573.858,570.345,0.0
56479.0,STARLINK-6044,PAYLOAD,2024-08-05 22:45:27,14.98315837,0.0002525,70.0002,148.559,270.8336,89.2534,-0.00011067,-1.413e-05,0.0,0 STARLINK-6044,1 56479U 23064AH  24218.94823807 -.00001413  00000-0 -11067-3 0  9993,2 56479  70.0002 148.5590 0002525 270.8336  89.2534 14.98315837 68753,6950.237,96.108,573.857,570.347,0.0
56479.0,STARLINK-6044,PAYLOAD,2024-08-06 13:10:40,14.98324017,0.0002873,70.0,147.0445,266.1132,93.9699,-0.00011023,-1.408e-05,0.0,0 STARLINK-6044,1 56479U 23064AH  24219.54907658 -.00001408  00000-0 -11023-3 0  9993,2 56479  70.0000 147.0445 0002873 266.1132  93.9699 14.98324017 69207,6950.211,96.107,574.073,570.08,0.0
56479.0,STARLINK-6044,PAYLOAD,2024-08-06 21:11:19,14.98328621,0.0003084,69.9995,146.2022,272.8798,87.2008,8.0389e-05,8.66e-06,0.0,0 STARLINK-6044,1 56479U 23064AH  24219.88286937  .00000866  00000-0  80389-4 0  9997,2 56479  69.9995 146.2022 0003084 272.8798  87.2008 14.98328621 69256,6950.197,96.107,574.206,569.919,0.0
56479.0,STARLINK-6044,PAYLOAD,2024-08-07 03:35:51,14.98342551,0.0002801,70.0,145.5287,272.4595,87.6243,0.00012106,1.352e-05,0.0,0 STARLINK-6044,1 56479U 23064AH  24220.14990016  .00001352  00000-0  12106-3 0  9990,2 56479  70.0000 145.5287 0002801 272.4595  87.6243 14.98342551 69295,6950.154,96.106,573.966,570.072,0.0
56479.0,STARLINK-6044,PAYLOAD,2024-08-07 21:13:20,14.98329719,0.0002721,70.0005,143.677,277.4458,82.6392,0.00034355,4.008e-05,0.0,0 STARLINK-6044,1 56479U 23064AH  24220.88426295  .00004008  00000-0  34355-3 0  9995,2 56479  70.0005 143.6770 0002721 277.4458  82.6392 14.98329719 69404,6950.194,96.107,573.95,570.168,0.0
56479.0,STARLINK-6044,PAYLOAD,2024-08-08 05:13:59,14.98341227,0.0002444,70.0012,142.8357,272.9104,87.1776,0.00042681,5.005e-05,0.0,0 STARLINK-6044,1 56479U 23064AH  24221.21805521  .00005005  00000-0  42681-3 0  9995,2 56479  70.0012 142.8357 0002444 272.9104  87.1776 14.98341227 69093,6950.158,96.106,573.722,570.325,0.0
56479.0,STARLINK-6044,PAYLOAD,2024-08-08 21:15:20,14.98341499,0.0002203,70.0013,141.1543,253.516,106.5757,4.9037e-05,4.92e-06,0.0,0 STARLINK-6044,1 56479U 23064AH  24221.88565920  .00000492  00000-0  49037-4 0  9992,2 56479  70.0013 141.1543 0002203 253.5160 106.5757 14.98341499 69550,6950.157,96.106,573.553,570.491,0.0
56479.0,STARLINK-6044,PAYLOAD,2024-08-08 22:51:29,14.98339311,0.0002328,70.0017,140.986,251.438,108.6526,5.5363e-05,5.68e-06,0.0,0 STARLINK-6044,1 56479U 23064AH  24221.95241931  .00000568  00000-0  55363-4 0  9996,2 56479  70.0017 140.9860 0002328 251.4380 108.6526 14.98339311 69201,6950.164,96.106,573.647,570.411,0.0
56479.0,STARLINK-6044,PAYLOAD,2024-08-09 11:40:33,14.983341,0.0001976,70.0027,139.6351,288.4112,71.6832,4.4522e-06,-4e-07,0.0,0 STARLINK-6044,1 56479U 23064AH  24222.48650231 -.00000040  00000-0  44522-5 0  9994,2 56479  70.0027 139.6351 0001976 288.4112  71.6832 14.98334100 69641,6950.18,96.107,573.419,570.672,0.0
56479.0,STARLINK-6044,PAYLOAD,2024-08-09 19:41:14,14.98330909,0.0002487,70.0019,138.8007,251.8329,108.256,-0.00013825,-1.742e-05,0.0,0 STARLINK-6044,1 56479U 23064AH  24222.82030731 -.00001742  00000-0 -13825-3 0  9990,2 56479  70.0019 138.8007 0002487 251.8329 108.2560 14.98330909 69696,6950.19,96.107,573.784,570.327,0.0
56479.0,STARLINK-6044,PAYLOAD,2024-08-09 21:17:22,14.98330762,0.0002555,70.0015,138.6318,258.8817,101.2054,-0.00016067,-2.009e-05,0.0,0 STARLINK-6044,1 56479U 23064AH  24222.88706747 -.00002009  00000-0 -16067-3 0  9991,2 56479  70.0015 138.6318 0002555 258.8817 101.2054 14.98330762 69340,6950.191,96.107,573.831,570.28,0.0
56479.0,STARLINK-6044,PAYLOAD,2024-08-10 05:18:02,14.98333895,0.000269,70.0011,137.7879,249.0503,111.0368,-0.00010268,-1.318e-05,0.0,0 STARLINK-6044,1 56479U 23064AH  24223.22086082 -.00001318  00000-0 -10268-3 0  9992,2 56479  70.0011 137.7879 0002690 249.0503 111.0368 14.98333895 69754,6950.181,96.107,573.915,570.176,0.0
56479.0,STARLINK-6044,PAYLOAD,2024-08-10 22:55:30,14.98336791,0.0002687,70.0011,135.9377,249.5698,110.5173,0.00011287,1.254e-05,0.0,0 STARLINK-6044,1 56479U 23064AH  24223.95521488  .00001254  00000-0  11287-3 0  9995,2 56479  70.0011 135.9377 0002687 249.5698 110.5173 14.98336791 69502,6950.172,96.107,573.904,570.169,0.0
56479.0,STARLINK-6044,PAYLOAD,2024-08-11 02:07:46,14.98339937,0.000231,70.0016,135.5984,256.4336,103.6565,0.00026121,3.026e-05,0.0,0 STARLINK-6044,1 56479U 23064AH  24224.08873183  .00003026  00000-0  26121-3 0  9994,2 56479  70.0016 135.5984 0002310 256.4336 103.6565 14.98339937 69880,6950.162,96.106,573.633,570.422,0.0
56479.0,STARLINK-6044,PAYLOAD,2024-08-11 11:44:33,14.98362062,0.0002998,70.0006,134.5867,272.9218,87.1598,0.00054598,6.433e-05,0.0,0 STARLINK-6044,1 56479U 23064AH  24224.48927892  .00006433  00000-0  54598-3 0  9999,2 56479  70.0006 134.5867 0002998 272.9218  87.1598 14.98362062 69946,6950.094,96.105,574.042,569.875,0.0
56479.0,STARLINK-6044,PAYLOAD,2024-08-11 22:57:30,14.98339619,0.0003054,70.001,133.4101,272.7181,87.3628,0.0003517,4.107e-05,0.0,0 STARLINK-6044,1 56479U 23064AH  24224.95660785  .00004107  00000-0  35170-3 0  9997,2 56479  70.0010 133.4101 0003054 272.7181  87.3628 14.98339619 69657,6950.163,96.106,574.151,569.906,0.0
56479.0,STARLINK-6044,PAYLOAD,2024-08-12 03:45:55,14.98319492,0.0002815,70.0017,132.9071,260.9309,99.1531,-0.00017226,-2.147e-05,0.0,0 STARLINK-6044,1 56479U 23064AH  24225.15689762 -.00002147  00000-0 -17226-3 0  9992,2 56479  70.0017 132.9071 0002815 260.9309  99.1531 14.98319492 70045,6950.225,96.108,574.047,570.134,0.0
56479.0,STARLINK-6044,PAYLOAD,2024-08-12 11:46:36,14.98325759,0.0002932,70.001,132.063,267.9508,92.1315,0.00017818,2.033e-05,0.0,0 STARLINK-6044,1 56479U 23064AH  24225.49069707  .00002033  00000-0  17818-3 0  9999,2 56479  70.0010 132.0630 0002932 267.9508  92.1315 14.98325759 69738,6950.206,96.107,574.109,570.033,0.0
56479.0,STARLINK-6044,PAYLOAD,2024-08-12 21:23:23,14.98340709,0.0002836,70.003,131.0561,281.57,78.5141,0.00016442,1.87e-05,0.0,0 STARLINK-6044,1 56479U 23064AH  24225.89124884  .00001870  00000-0  16442-3 0  9991,2 56479  70.0030 131.0561 0002836 281.5700  78.5141 14.98340709 70156,6950.16,96.106,573.996,570.054,0.0
